P/2016 R4 (Gibbs),e,10.8728,168.2838,174.1306,5.334418,0.0799970,0.47559746,218.6314,01/17.0/2024,2000,g 12.5,4.0
# From MPC105543
P/2016 S1 (PANSTARRS),e,94.7395,227.6772,273.2130,8.271909,0.0414281,0.71108887,103.3918,01/17.0/2024,2000,g 12.0,4.0
# From MPC106345
P/2016 WM48 (Lemmon),e,117.6284,59.9511,36.1716,8.172581,0.0421857,0.78363490,106.1940,01/17.0/2024,2000,g 15.0,4.0
# From MPEC 2021-P47
C/2016 X1 (Lemmon),e,26.4661,256.3117,224.5194,1695,0.0000141,0.99554344,0.0000,04/28.7474/2019,2000,g  6.0,4.0
# From MPEC 2022-OB6
C/2017 B3 (LINEAR),e,54.1753,2.1904,284.8291,9166,0.0000011,0.99957090,0.0000,01/31.3634/2019,2000,g  6.0,4.0
# From MPC103847
P/2017 B4 (PANSTARRS),e,20.0584,121.4578,11.0197,4.410520,0.1064068,0.36495152,359.9130,01/05.0/2017,2000,g 14.5,4.0
# From MPEC 2022-OB6
P/2017 D1 (Fuls),e,20.7720,82.1987,7.9812,4.825701,0.0929744,0.43751774,256.8046,01/17.0/2024,2000,g 14.0,4.0
# From MPEC 2022-OB6
P/2017 D4 (PANSTARRS),e,10.5554,264.9024,212.1331,7.544332,0.0475634,0.62981809,127.8438,01/17.0/2024,2000,g 13.0,4.0
# From MPC104794
P/2017 G1 (PANSTARRS),e,4.7886,249.7088,224.2909,7.271464,0.0502656,0.65458278,141.6780,01/17.0/2024,2000,g 13.5,4.0
# From MPC108595
P/2017 G2 (PANSTARRS),e,47.9670,79.8850,105.3005,8.043740,0.0432033,0.64791363,104.2507,01/17.0/2024,2000,g 13.0,4.0
# From MPEC 2024-AF0
C/2017 K2 (PANSTARRS),h,12/19.6500/2022,87.5709,88.2325,236.2049,1.000558,1.797478,2000,1.5,4.0
# From MPEC 2021-N06
P/2017 K3 (Gasparovic),e,4.2736,354.3045,253.3362,5.584993,0.0746741,0.57890411,181.3211,01/17.0/2024,2000,g 14.5,4.0
# From MPEC 2021-P47
C/2017 K5 (PANSTARRS),h,03/26.9317/2020,82.2671,102.4292,172.0383,1.004049,7.685028,2000,5.0,4.0
# From MPEC 2022-OB6
C/2017 M4 (ATLAS),h,01/17.9216/2019,105.6264,66.0121,167.5378,1.000848,3.245804,2000,6.0,4.0
# From MPC114599
P/2017 P1 (PANSTARRS),e,7.6878,221.4625,122.7837,7.919483,0.0442241,0.31014585,89.9586,01/17.0/2024,2000,g 10.0,4.0
# From MPEC 2022-OB6
P/2017 S8 (PANSTARRS),e,29.8455,191.5340,254.8669,2.778757,0.2127787,0.39096816,103.9823,01/17.0/2024,2000,g 16.0,4.0
# From MPEC 2024-A43
C/2017 T2 (PANSTARRS),e,57.2884,64.4444,92.8472,1489,0.0000171,0.99891902,0.0000,05/05.1160/2020,2000,g  5.0,4.0
# From MPC115882
P/2017 TW13 (Lemmon),e,44.8659,322.2214,119.9186,7.135226,0.0517121,0.71064338,105.1946,01/17.0/2024,2000,g 15.0,2.0
# From MPEC 2022-K19
P/2017 U3 (PANSTARRS),e,15.9179,165.0889,296.2282,4.922235,0.0902528,0.10026398,157.0468,01/17.0/2024,2000,g 11.0,4.0
# From MPEC 2023-A50
C/2017 U7 (PANSTARRS),h,09/15.9245/2019,142.6289,276.2947,326.4618,1.002467,6.427533,2000,8.3,2.0
# From MPC114601
P/2017 W3 (Gibbs),e,18.1736,210.1549,327.7775,7.824901,0.0450283,0.50643683,96.8537,01/17.0/2024,2000,g 10.5,4.0
# From MPEC 2022-TD3
C/2017 Y2 (PANSTARRS),h,11/04.9188/2020,128.4347,66.0454,147.9111,1.000719,4.632385,2000,15.0,4.0
# From MPC111770
P/2017 Y3 (Leonard),e,27.5879,153.9113,67.4934,9.808085,0.0320869,0.86932362,69.6228,01/17.0/2024,2000,g 16.5,4.0
# From MPEC 2021-P47
C/2018 A3 (ATLAS),e,139.5560,194.3075,86.3910,348.0972,0.0001518,0.99056632,0.0000,01/09.7698/2019,2000,g  8.5,4.0
# From MPC109147
P/2018 A5 (PANSTARRS),e,23.6153,87.7836,359.5005,5.626161,0.0738560,0.52409028,170.1497,01/17.0/2024,2000,g 15.0,4.0
# From MPEC 2023-UR6
C/2018 A6 (Gibbs),e,77.0935,340.4036,264.3211,15.01818,0.0169347,0.79899889,27.9640,01/17.0/2024,2000,g  9.0,4.0
# From MPC114601
P/2018 C1 (Lemmon-Read),e,5.1073,270.2890,235.7110,5.651185,0.0733660,0.53222244,158.0144,01/17.0/2024,2000,g 13.5,4.0
# From MPEC 2022-M88
C/2018 DO4 (Lemmon),e,160.4459,251.3942,176.3236,25.42454,0.0076882,0.90501152,12.4083,01/17.0/2024,2000,g 11.0,4.0
# From MPEC 2021-R75
C/2018 F1 (Grauer),e,46.1049,177.2860,71.5375,227.7064,0.0002868,0.98683984,0.0000,12/10.9051/2018,2000,g 11.5,4.0
# From MPEC 2023-A50
C/2018 F4 (PANSTARRS),e,78.0879,26.5168,263.2088,2756,0.0000068,0.99874973,0.0000,12/02.1277/2019,2000,g 11.0,6.0
# From MPEC 2021-Y10
C/2018 F4-A,e,78.0881,26.5170,263.2055,2644,0.0000072,0.99869677,0.0000,12/02.1159/2019,2000,g 11.0,6.0
# From MPEC 2023-D41
C/2018 F4-B,e,78.0890,26.5165,263.1913,2837,0.0000065,0.99878556,0.0000,12/02.0527/2019,2000,g 11.0,6.0
# From MPC114602
P/2018 H2 (PANSTARRS),e,7.4188,67.9875,119.5612,4.393432,0.1070282,0.54112157,236.1744,01/17.0/2024,2000,g 16.6,2.0
# From MPEC 2021-R75
C/2018 KJ3 (Lemmon),e,136.6436,91.6796,217.6158,849.3444,0.0000398,0.99573509,0.0000,09/09.7881/2019,2000,g 12.2,2.0
# From MPC114602
P/2018 L1 (PANSTARRS),e,10.5792,268.5958,18.0094,3.655516,0.1410201,0.48135055,267.0798,01/17.0/2024,2000,g 15.0,4.0
# From MPEC 2021-P47
C/2018 L2 (ATLAS),e,67.2093,242.9863,56.3466,248.5294,0.0002516,0.99308407,0.0000,12/01.2548/2018,2000,g 10.0,4.0
# From MPC114603
P/2018 L4 (PANSTARRS),e,26.6032,145.2061,140.5787,4.947030,0.0895751,0.65846103,178.9590,01/17.0/2024,2000,g 17.5,4.0
# From MPC119996
P/2018 L5 (Leonard),e,2.2089,219.0577,93.9297,3.629236,0.1425546,0.36390465,296.8622,01/17.0/2024,2000,g 14.5,4.0
# From MPEC 2022-YN2
C/2018 N2 (ASASSN),h,11/11.7427/2019,77.5499,24.4935,25.2598,1.001515,3.130967,2000,6.0,4.0
# From MPEC 2023-XP6
P/2018 P3 (PANSTARRS),e,8.9149,59.1596,306.0123,3.004242,0.1892787,0.41725318,4.0237,01/17.0/2024,2000,g 14.5,4.0
# From MPC114603
P/2018 P4 (PANSTARRS),e,23.1006,353.1408,8.4626,6.690324,0.0569552,0.45007607,107.9300,01/17.0/2024,2000,g 12.0,4.0
# From MPEC 2021-P47
C/2018 P5 (PANSTARRS),e,7.2458,216.2509,132.0070,12.85276,0.0213899,0.64253888,38.1644,01/17.0/2024,2000,g 11.0,4.0
# From MPC118841
C/2018 R3 (Lemmon),e,69.7161,324.5310,112.7148,1627,0.0000150,0.99921190,0.0000,06/08.0079/2019,2000,g  9.5,4.0
# From MPC114603
C/2018 R5 (Lemmon),e,103.7323,171.1972,178.2348,22.95497,0.0089617,0.84155761,16.4223,01/17.0/2024,2000,g 11.5,4.0
# From MPEC 2022-QC6
C/2018 S2 (TESS),e,64.1239,85.1206,290.8514,14.36870,0.0180958,0.61864727,34.3328,01/17.0/2024,2000,g  7.5,4.0
# From MPEC 2023-N01
C/2018 U1 (Lemmon),h,11/02.8905/2021,108.3241,75.5072,180.4449,1.001184,4.991260,2000,5.0,4.0
# From MPC114604
C/2018 V1 (Machholz-Fujikawa-Iwamoto),h,12/03.0831/2018,144.1432,129.2940,89.3342,1.000403,0.391734,2000,12.0,4.0
# From MPC115884
C/2018 V2 (ATLAS),e,159.1667,357.1173,319.1355,25.14567,0.0078164,0.90096517,14.6842,01/17.0/2024,2000,g 15.0,4.0
# From MPEC 2023-CD7
P/2018 VN2 (Leonard),e,18.2603,226.4411,138.9167,4.061753,0.1204020,0.47853346,246.6506,01/17.0/2024,2000,g 15.0,4.0
# From MPEC 2022-VC5
A/2018 V3,e,164.9435,308.7528,3.6149,128.4795,0.0006768,0.98959209,0.0000,09/09.8280/2019,2000,g 15.7,2.0
# From MPEC 2022-M21
C/2018 V4 (Africano),e,69.0318,78.2642,359.9864,207.6858,0.0003293,0.98461117,0.0000,03/02.0504/2019,2000,g 12.5,4.0
# From MPEC 2021-P47
P/2018 V5 (Trujillo-Sheppard),e,10.5866,171.3241,260.7038,8.968843,0.0366944,0.47590283,70.8194,01/17.0/2024,2000,g 12.5,4.0
# From MPEC 2021-P47
C/2018 W1 (Catalina),e,83.4210,233.6559,251.2066,21.70673,0.0097457,0.93751275,16.6698,01/17.0/2024,2000,g 15.5,2.0
# From MPEC 2021-P47
C/2018 W2 (Africano),h,09/05.3375/2019,116.6052,181.8599,158.1528,1.000772,1.464241,2000,9.5,4.0
# From MPEC 2023-M14
A/2018 W3,e,104.8347,251.6849,313.9440,717.2957,0.0000513,0.99402107,0.0000,04/13.0885/2021,2000,g 10.7,2.0
# From MPC119996
C/2018 X2 (Fitzsimmons),e,23.0826,340.7510,161.9403,139.1041,0.0006008,0.98478899,0.0000,07/08.6951/2019,2000,g 12.0,4.0
# From MPC114604
C/2018 X3 (PANSTARRS),e,43.4148,78.8100,359.7766,12.38835,0.0226039,0.78283764,41.6382,01/17.0/2024,2000,g 14.5,4.0
# From MPEC 2024-A43
C/2018 Y1 (Iwamoto),e,160.4354,147.4305,357.8742,127.6010,0.0006838,0.98992128,0.0000,02/04.9032/2019,2000,g 11.5,4.0
# From MPC114605
P/2018 Y2 (Africano),e,11.6884,297.1628,162.2775,7.453622,0.0484343,0.47971123,89.1265,01/17.0/2024,2000,g 11.5,4.0
# From MPC114605
P/2019 A1 (PANSTARRS),e,13.7581,312.2417,150.7218,5.114454,0.0852129,0.56973955,163.8433,01/17.0/2024,2000,g 16.0,4.0
# From MPEC 2021-P47
P/2019 A2 (ATLAS),e,14.8647,139.4067,323.8714,5.711909,0.0721992,0.38273863,135.8985,01/17.0/2024,2000,g 10.5,4.0
# From MPEC 2022-M21
P/2019 A3 (PANSTARRS),e,15.3748,31.3556,325.6493,3.143718,0.1768230,0.26609724,351.9260,01/17.0/2024,2000,g 16.0,4.0
# From MPEC 2022-L66
P/2019 A4 (PANSTARRS),e,13.3044,119.3660,343.0413,2.614223,0.2331793,0.08728898,74.4192,01/17.0/2024,2000,g 15.0,4.0
# From MPEC 2021-P47
C/2019 A5 (PANSTARRS),e,67.5484,146.5745,355.7754,21.47724,0.0099023,0.70612234,16.6913,01/17.0/2024,2000,g  9.5,4.0
# From MPC114605
P/2019 A6 (Lemmon-PANSTARRS),e,33.2747,280.1946,156.1959,5.356930,0.0794932,0.64029477,156.1831,01/17.0/2024,2000,g 16.0,4.0
# From MPC115884
P/2019 A8 (PANSTARRS),e,2.2100,114.5314,64.2547,4.327640,0.1094781,0.22902086,225.2553,01/17.0/2024,2000,g 16.0,4.0
# From MPC118842
C/2019 A9 (PANSTARRS),e,84.3259,278.4368,237.9068,39.16043,0.0040219,0.96348815,6.5793,01/17.0/2024,2000,g 15.0,4.0
# From MPEC 2022-L66
C/2019 B1 (Africano),e,123.4290,290.3006,174.7736,138.1856,0.0006067,0.98844346,0.0000,03/18.7428/2019,2000,g 16.0,4.0
# From MPC115885
P/2019 B2 (Groeller),e,16.9809,175.7309,0.8450,3.920588,0.1269630,0.35856124,215.8850,01/17.0/2024,2000,g 14.5,4.0
# From MPEC 2024-A43
C/2019 B3 (PANSTARRS),e,66.5508,358.4242,263.9722,6973,0.0000017,0.99902106,0.0000,01/20.0512/2021,2000,g  5.5,4.0
# From MPEC 2021-P47
C/2019 C1 (ATLAS),e,36.0513,212.3920,319.0325,646.9331,0.0000599,0.98984062,0.0000,05/04.0844/2020,2000,g 10.0,4.0
# From MPEC 2022-O08
C/2019 D1 (Flewelling),e,33.9960,231.6472,70.7248,140.6435,0.0005909,0.98870203,0.0000,05/10.4427/2019,2000,g 13.0,4.0
# From MPEC 2024-AF0
C/2019 E3 (ATLAS),e,84.2995,347.2300,280.7012,7375,0.0000016,0.99860158,0.0000,11/15.3087/2023,2000,g  2.5,4.0
# From MPEC 2024-AF0
C/2019 F1 (ATLAS-Africano),h,06/22.3358/2021,54.2357,38.6637,251.3409,1.001733,3.607169,2000,5.5,4.0
# From MPEC 2021-P47
C/2019 F2 (ATLAS),e,19.2989,175.4025,11.6419,16.59109,0.0145845,0.86466793,23.2266,01/17.0/2024,2000,g 12.0,4.0
# From MPEC 2021-P47
